window._tle = "PEGASUS\n1 42784U 17036V   21226.39288041  .00001407  00000-0  59662-4 0  9994\n2 42784  97.2460 273.6036 0010636 343.7261  16.3634 15.24672254230189";
